OBJECT_NAME,OBJECT_ID,EPOCH,MEAN_MOTION,ECCENTRICITY,INCLINATION,RA_OF_ASC_NODE,ARG_OF_PERICENTER,MEAN_ANOMALY,EPHEMERIS_TYPE,CLASSIFICATION_TYPE,NORAD_CAT_ID,ELEMENT_SET_NO,REV_AT_EPOCH,BSTAR,MEAN_MOTION_DOT,MEAN_MOTION_DDOT
GSAT0233 (GALILEO 33),2025-302A,2026-05-12T10:48:29.411424,1.70474342,.00019015,54.3135,103.1487,244.8588,299.0758,0,U,67160,999,251,0,.57E-6,0
GSAT0234 (GALILEO 34),2025-302C,2026-05-13T09:26:28.354272,1.70474315,.000379,54.3149,103.1209,297.7699,285.0412,0,U,67162,999,258,0,.54E-6,0
